{
  "type": "FeatureCollection",
  "features": [
    {
      "type": "Feature",
      "properties": {
        "norad_id": 28051,
        "name": "IRS-P6 (RESOURCESAT-1)",
        "group": "resource",
        "lat": 37.77646562822501,
        "lon": 11.25104020890736,
        "alt_km": 813.8019133770958,
        "timestamp": "2025-12-02T19:35:50.218212+00:00",
        "meta_object_name": "IRS-P6 (RESOURCESAT-1)",
        "meta_object_id": "2003-046A",
        "meta_epoch": "2025-12-02T13:28:11.491104",
        "meta_mean_motion": 14.36066829,
        "meta_eccentricity": 0.0063604,
        "meta_inclination": 98.2192,
        "meta_ra_of_asc_node": 17.4393,
        "meta_arg_of_pericenter": 211.3502,
        "meta_mean_anomaly": 307.9317,
        "meta_ephemeris_type": 0,
        "meta_classification_type": "U",
        "meta_norad_cat_id": 28051,
        "meta_element_set_no": 999,
        "meta_rev_at_epoch": 15230,
        "meta_bstar": 0.00011908,
        "meta_mean_motion_dot": 3.13e-06,
        "meta_mean_motion_ddot": 0,
        "tle_line1": "1 28051U 03046A   25336.56124411  .00000313  00000+0  11908-3 0  9990",
        "tle_line2": "2 28051  98.2192  17.4393 0063604 211.3502 307.9317 14.36066829152305"
      },
      "geometry": {
        "type": "Point",
        "coordinates": [
          11.25104020890736,
          37.77646562822501
        ]
      }
    },
    {
      "type": "Feature",
      "properties": {
        "norad_id": 28220,
        "name": "SHIYAN-1 (SY-1)",
        "group": "resource",
        "lat": -54.108481985912874,
        "lon": -153.284543049883,
        "alt_km": 492.26932616954764,
        "timestamp": "2025-12-02T19:35:50.218223+00:00",
        "meta_object_name": "SHIYAN-1 (SY-1)",
        "meta_object_id": "2004-012A",
        "meta_epoch": "2025-12-02T10:42:45.224064",
        "meta_mean_motion": 15.27725867,
        "meta_eccentricity": 0.0006367,
        "meta_inclination": 97.8958,
        "meta_ra_of_asc_node": 37.3804,
        "meta_arg_of_pericenter": 3.4108,
        "meta_mean_anomaly": 356.7173,
        "meta_ephemeris_type": 0,
        "meta_classification_type": "U",
        "meta_norad_cat_id": 28220,
        "meta_element_set_no": 999,
        "meta_rev_at_epoch": 18099,
        "meta_bstar": 0.0005948,
        "meta_mean_motion_dot": 0.00016059,
        "meta_mean_motion_ddot": 0,
        "tle_line1": "1 28220U 04012A   25336.44635676  .00016059  00000+0  59480-3 0  9990",
        "tle_line2": "2 28220  97.8958  37.3804 0006367   3.4108 356.7173 15.27725867180994"
      },
      "geometry": {
        "type": "Point",
        "coordinates": [
          -153.284543049883,
          -54.108481985912874
        ]
      }
    },
    {
      "type": "Feature",
      "properties": {
        "norad_id": 28376,
        "name": "AURA",
        "group": "resource",
        "lat": 40.953158272091365,
        "lon": 114.29151102139194,
        "alt_km": 686.4915464026944,
        "timestamp": "2025-12-02T19:35:50.218234+00:00",
        "meta_object_name": "AURA",
        "meta_object_id": "2004-026A",
        "meta_epoch": "2025-12-02T10:44:48.840864",
        "meta_mean_motion": 14.60906453,
        "meta_eccentricity": 0.0001076,
        "meta_inclination": 98.3169,
        "meta_ra_of_asc_node": 286.6277,
        "meta_arg_of_pericenter": 90.3249,
        "meta_mean_anomaly": 269.8074,
        "meta_ephemeris_type": 0,
        "meta_classification_type": "U",
        "meta_norad_cat_id": 28376,
        "meta_element_set_no": 999,
        "meta_rev_at_epoch": 13748,
        "meta_bstar": 0.00032197,
        "meta_mean_motion_dot": 1.528e-05,
        "meta_mean_motion_ddot": 0,
        "tle_line1": "1 28376U 04026A   25336.44778751  .00001528  00000+0  32197-3 0  9990",
        "tle_line2": "2 28376  98.3169 286.6277 0001076  90.3249 269.8074 14.60906453137480"
      },
      "geometry": {
        "type": "Point",
        "coordinates": [
          114.29151102139194,
          40.953158272091365
        ]
      }
    },
    {
      "type": "Feature",
      "properties": {
        "norad_id": 28649,
        "name": "IRS-P5 (CARTOSAT-1)",
        "group": "resource",
        "lat": 21.162982375109454,
        "lon": 0.7267989108207457,
        "alt_km": 595.6826077249016,
        "timestamp": "2025-12-02T19:35:50.218246+00:00",
        "meta_object_name": "IRS-P5 (CARTOSAT-1)",
        "meta_object_id": "2005-017A",
        "meta_epoch": "2025-12-02T01:46:36.348384",
        "meta_mean_motion": 14.90343635,
        "meta_eccentricity": 0.00018344,
        "meta_inclination": 97.5508,
        "meta_ra_of_asc_node": 2.9606,
        "meta_arg_of_pericenter": 54.2083,
        "meta_mean_anomaly": 305.9306,
        "meta_ephemeris_type": 0,
        "meta_classification_type": "U",
        "meta_norad_cat_id": 28649,
        "meta_element_set_no": 999,
        "meta_rev_at_epoch": 11445,
        "meta_bstar": 0.00021173898,
        "meta_mean_motion_dot": 2.007e-05,
        "meta_mean_motion_ddot": 0,
        "tle_line1": "1 28649U 05017A   25336.07403181  .00002007  00000+0  21174-3 0  9991",
        "tle_line2": "2 28649  97.5508   2.9606 0001834  54.2083 305.9306 14.90343635114455"
      },
      "geometry": {
        "type": "Point",
        "coordinates": [
          0.7267989108207457,
          21.162982375109454
        ]
      }
    },
    {
      "type": "Feature",
      "properties": {
        "norad_id": 28893,
        "name": "SINAH 1",
        "group": "resource",
        "lat": -56.22739142983852,
        "lon": -87.19822474281959,
        "alt_km": 683.9878523055086,
        "timestamp": "2025-12-02T19:35:50.218257+00:00",
        "meta_object_name": "SINAH 1",
        "meta_object_id": "2005-043D",
        "meta_epoch": "2025-12-02T11:57:25.085664",
        "meta_mean_motion": 14.63943369,
        "meta_eccentricity": 0.0014769,
        "meta_inclination": 98.2599,
        "meta_ra_of_asc_node": 105.0285,
        "meta_arg_of_pericenter": 167.8198,
        "meta_mean_anomaly": 192.3363,
        "meta_ephemeris_type": 0,
        "meta_classification_type": "U",
        "meta_norad_cat_id": 28893,
        "meta_element_set_no": 999,
        "meta_rev_at_epoch": 7174,
        "meta_bstar": 0.00014787,
        "meta_mean_motion_dot": 7.26e-06,
        "meta_mean_motion_ddot": 0,
        "tle_line1": "1 28893U 05043D   25336.49820701  .00000726  00000+0  14787-3 0  9996",
        "tle_line2": "2 28893  98.2599 105.0285 0014769 167.8198 192.3363 14.63943369 71746"
      },
      "geometry": {
        "type": "Point",
        "coordinates": [
          -87.19822474281959,
          -56.22739142983852
        ]
      }
    },
    {
      "type": "Feature",
      "properties": {
        "norad_id": 29079,
        "name": "EROS B",
        "group": "resource",
        "lat": -14.945713743784996,
        "lon": -89.0281570385101,
        "alt_km": 378.4026100061001,
        "timestamp": "2025-12-02T19:35:50.218267+00:00",
        "meta_object_name": "EROS B",
        "meta_object_id": "2006-014A",
        "meta_epoch": "2025-12-02T12:37:32.424672",
        "meta_mean_motion": 15.64347483,
        "meta_eccentricity": 0.0002427,
        "meta_inclination": 97.3486,
        "meta_ra_of_asc_node": 92.6435,
        "meta_arg_of_pericenter": 232.3875,
        "meta_mean_anomaly": 127.7164,
        "meta_ephemeris_type": 0,
        "meta_classification_type": "U",
        "meta_norad_cat_id": 29079,
        "meta_element_set_no": 999,
        "meta_rev_at_epoch": 8920,
        "meta_bstar": 0.0015618,
        "meta_mean_motion_dot": 0.00151631,
        "meta_mean_motion_ddot": 0,
        "tle_line1": "1 29079U 06014A   25336.52606973  .00151631  00000+0  15618-2 0  9994",
        "tle_line2": "2 29079  97.3486  92.6435 0002427 232.3875 127.7164 15.64347483 89202"
      },
      "geometry": {
        "type": "Point",
        "coordinates": [
          -89.0281570385101,
          -14.945713743784996
        ]
      }
    },
    {
      "type": "Feature",
      "properties": {
        "norad_id": 29228,
        "name": "RESURS-DK 1",
        "group": "resource",
        "lat": -40.853146157186686,
        "lon": -34.09112961244342,
        "alt_km": 531.8091699163724,
        "timestamp": "2025-12-02T19:35:50.218278+00:00",
        "meta_object_name": "RESURS-DK 1",
        "meta_object_id": "2006-021A",
        "meta_epoch": "2025-12-02T12:15:29.765088",
        "meta_mean_motion": 15.12065188,
        "meta_eccentricity": 0.0007829,
        "meta_inclination": 69.9324,
        "meta_ra_of_asc_node": 128.2693,
        "meta_arg_of_pericenter": 266.0384,
        "meta_mean_anomaly": 93.9886,
        "meta_ephemeris_type": 0,
        "meta_classification_type": "U",
        "meta_norad_cat_id": 29228,
        "meta_element_set_no": 999,
        "meta_rev_at_epoch": 7283,
        "meta_bstar": 0.00024695,
        "meta_mean_motion_dot": 4.154e-05,
        "meta_mean_motion_ddot": 0,
        "tle_line1": "1 29228U 06021A   25336.51076117  .00004154  00000+0  24695-3 0  9991",
        "tle_line2": "2 29228  69.9324 128.2693 0007829 266.0384  93.9886 15.12065188 72834"
      },
      "geometry": {
        "type": "Point",
        "coordinates": [
          -34.09112961244342,
          -40.853146157186686
        ]
      }
    }
  ]
}